NORAD_CAT_ID,OBJECT_NAME,OBJECT_TYPE,EPOCH,MEAN_MOTION,ECCENTRICITY,INCLINATION,RA_OF_ASC_NODE,ARG_OF_PERICENTER,MEAN_ANOMALY,BSTAR,MEAN_MOTION_DOT,MEAN_MOTION_DDOT,TLE_LINE0,TLE_LINE1,TLE_LINE2,SEMIMAJOR_AXIS,PERIOD,APOGEE,PERIGEE,DECAYED
53600.0,STARLINK-4677,PAYLOAD,2024-01-07 19:38:57,15.07204071,0.0001395,53.2162,199.3469,98.7851,261.3298,4.1657e-05,3.51e-06,0.0,0 STARLINK-4677,1 53600U 22104N   24007.81872564  .00000351  00000-0  41657-4 0  9993,2 53600  53.2162 199.3469 0001395  98.7851 261.3298 15.07204071 76069,6922.885,95.541,545.716,543.785,0.0
53600.0,STARLINK-4677,PAYLOAD,2024-01-08 13:09:20,15.07205481,0.0001402,53.2166,196.081,97.5783,262.5368,4.364e-05,3.81e-06,0.0,0 STARLINK-4677,1 53600U 22104N   24008.54815608  .00000381  00000-0  43640-4 0  9997,2 53600  53.2166 196.0810 0001402  97.5783 262.5368 15.07205481 76176,6922.881,95.541,545.717,543.775,0.0
53600.0,STARLINK-4677,PAYLOAD,2024-01-08 19:31:17,15.07206582,0.0001402,53.2166,194.893,101.0755,259.0395,4.8391e-05,4.53e-06,0.0,0 STARLINK-4677,1 53600U 22104N   24008.81340250  .00000453  00000-0  48391-4 0  9991,2 53600  53.2166 194.8930 0001402 101.0755 259.0395 15.07206582 75932,6922.878,95.541,545.713,543.772,0.0
53600.0,STARLINK-4677,PAYLOAD,2024-01-09 19:22:48,15.0773418,0.0001835,53.2172,190.4346,146.5262,213.5846,0.004243,0.00065849,0.0,0 STARLINK-4677,1 53600U 22104N   24009.80750808  .00065849  00000-0  42430-2 0  9991,2 53600  53.2172 190.4346 0001835 146.5262 213.5846 15.07734180 76082,6921.263,95.508,544.398,541.857,0.0
53600.0,STARLINK-4677,PAYLOAD,2024-01-09 20:58:13,15.0776451,0.0001441,53.217,190.1366,128.0803,232.0318,0.0044024,0.00068415,0.0,0 STARLINK-4677,1 53600U 22104N   24009.87376614  .00068415  00000-0  44024-2 0  9990,2 53600  53.2170 190.1366 0001441 128.0803 232.0318 15.07764510 76370,6921.17,95.506,544.032,542.037,0.0
53600.0,STARLINK-4677,PAYLOAD,2024-01-10 00:08:59,15.07883286,0.0001234,53.2166,189.5431,128.6015,231.5088,0.0050683,0.00079183,0.0,0 STARLINK-4677,1 53600U 22104N   24010.00624852  .00079183  00000-0  50683-2 0  9999,2 53600  53.2166 189.5431 0001234 128.6015 231.5088 15.07883286 76113,6920.806,95.498,543.525,541.817,0.0
53600.0,STARLINK-4677,PAYLOAD,2024-01-10 19:13:53,15.08241389,0.000129,53.2162,185.9769,65.6562,294.4564,0.0069745,0.00110633,0.0,0 STARLINK-4677,1 53600U 22104N   24010.80131579  .00110633  00000-0  69745-2 0  9991,2 53600  53.2162 185.9769 0001290  65.6562 294.4564 15.08241389 76235,6919.711,95.475,542.468,540.683,0.0
53600.0,STARLINK-4677,PAYLOAD,2024-01-11 06:00:00,15.08863445,0.0001057,53.2142,183.9632,78.4,199.3038,0.0011509,0.00018088,0.0,0 STARLINK-4677,1 53600U 22104N   24011.25001157  .00018088  00000-0  11509-2 0  9995,2 53600  53.2142 183.9632 0001057  78.4000 199.3038 15.08863445 76300,6917.809,95.436,540.405,538.943,0.0
53600.0,STARLINK-4677,PAYLOAD,2024-01-11 14:00:01,15.08920978,0.0001096,53.2144,182.4671,85.4972,203.8946,-0.0039994,-0.00063516,0.0,0 STARLINK-4677,1 53600U 22104N   24011.58335648 -.00063516  00000-0 -39994-2 0  9992,2 53600  53.2144 182.4671 0001096  85.4972 203.8946 15.08920978  5809,6917.633,95.432,540.256,538.74,0.0
53600.0,STARLINK-4677,PAYLOAD,2024-01-11 22:00:00,15.08829351,0.000109,53.2147,180.9719,79.4964,221.5036,-0.0021993,-0.00035109,0.0,0 STARLINK-4677,1 53600U 22104N   24011.91667824 -.00035109  00000-0 -21993-2 0  9990,2 53600  53.2147 180.9719 0001090  79.4964 221.5036 15.08829351 76400,6917.913,95.438,540.532,539.024,0.0
53600.0,STARLINK-4677,PAYLOAD,2024-01-12 14:00:01,15.08824857,0.0001091,53.2154,177.9779,94.5952,229.5765,-0.00098719,-0.00015958,0.0,0 STARLINK-4677,1 53600U 22104N   24012.58335648 -.00015958  00000-0 -98719-3 0  9991,2 53600  53.2154 177.9779 0001091  94.5952 229.5765 15.08824857 76500,6917.927,95.439,540.546,539.037,0.0
53600.0,STARLINK-4677,PAYLOAD,2024-01-13 00:00:00,15.08822506,0.0001033,53.2154,176.1083,81.6025,346.9678,0.00084739,0.00013218,0.0,0 STARLINK-4677,1 53600U 22104N   24013.00001157  .00013218  00000-0  84739-3 0  9996,2 53600  53.2154 176.1083 0001033  81.6025 346.9678 15.08822506  5624,6917.934,95.439,540.513,539.084,0.0
53600.0,STARLINK-4677,PAYLOAD,2024-01-13 06:00:02,15.08814283,0.0001018,53.2159,174.9847,92.8431,254.4824,0.0026684,0.00042405,0.0,0 STARLINK-4677,1 53600U 22104N   24013.25002315  .00042405  00000-0  26684-2 0  9994,2 53600  53.2159 174.9847 0001018  92.8431 254.4824 15.08814283 76606,6917.959,95.439,540.528,539.12,0.0
53600.0,STARLINK-4677,PAYLOAD,2024-01-13 14:00:01,15.08867826,0.0001108,53.2163,173.489,89.8238,269.0739,-0.0026137,-0.00041675,0.0,0 STARLINK-4677,1 53600U 22104N   24013.58335648 -.00041675  00000-0 -26137-2 0  9991,2 53600  53.2163 173.4890 0001108  89.8238 269.0739 15.08867826  5716,6917.795,95.436,540.427,538.894,0.0
53600.0,STARLINK-4677,PAYLOAD,2024-01-13 22:00:00,15.08813919,0.0001172,53.2162,171.9937,79.6817,290.7711,0.001419,0.00022351,0.0,0 STARLINK-4677,1 53600U 22104N   24013.91667824  .00022351  00000-0  14190-2 0  9996,2 53600  53.2162 171.9937 0001172  79.6817 290.7711 15.08813919 76703,6917.96,95.439,540.636,539.014,0.0
53600.0,STARLINK-4677,PAYLOAD,2024-01-14 00:00:02,15.08824367,0.0001176,53.2162,171.6192,80.7666,22.6401,0.00012172,1.649e-05,0.0,0 STARLINK-4677,1 53600U 22104N   24014.00002315  .00001649  00000-0  12172-3 0  9991,2 53600  53.2162 171.6192 0001176  80.7666  22.6401 15.08824367 76721,6917.928,95.439,540.607,538.98,0.0
53600.0,STARLINK-4677,PAYLOAD,2024-01-14 13:51:08,15.08831267,0.000117,53.219,169.0317,84.5659,275.5467,0.00012729,1.738e-05,0.0,0 STARLINK-4677,1 53600U 22104N   24014.57718113  .00001738  00000-0  12729-3 0  9990,2 53600  53.2190 169.0317 0001170  84.5659 275.5467 15.08831267 77088,6917.907,95.438,540.581,538.963,0.0
53600.0,STARLINK-4677,PAYLOAD,2024-01-14 17:01:54,15.08832459,0.0001007,53.2174,168.4323,80.1128,279.9978,0.00016257,2.3e-05,0.0,0 STARLINK-4677,1 53600U 22104N   24014.70965945  .00002300  00000-0  16257-3 0  9998,2 53600  53.2174 168.4323 0001007  80.1128 279.9978 15.08832459 77104,6917.903,95.438,540.465,539.072,0.0
53600.0,STARLINK-4677,PAYLOAD,2024-01-15 08:55:46,15.08841585,0.0001627,53.2177,165.4581,74.5061,285.611,-1.2513e-05,-4.87e-06,0.0,0 STARLINK-4677,1 53600U 22104N   24015.37206192 -.00000487  00000-0 -12513-4 0  9992,2 53600  53.2177 165.4581 0001627  74.5061 285.6110 15.08841585 76922,6917.876,95.437,540.866,538.615,0.0
53600.0,STARLINK-4677,PAYLOAD,2024-01-15 13:41:55,15.08840397,0.0001045,53.2173,164.5672,78.426,281.685,7.6431e-05,9.29e-06,0.0,0 STARLINK-4677,1 53600U 22104N   24015.57078090  .00000929  00000-0  76431-4 0  9996,2 53600  53.2173 164.5672 0001045  78.4260 281.6850 15.08840397 77239,6917.879,95.438,540.467,539.021,0.0
53600.0,STARLINK-4677,PAYLOAD,2024-01-15 15:17:18,15.08842789,0.000108,53.2176,164.2696,71.4653,288.6456,9.5015e-05,1.225e-05,0.0,0 STARLINK-4677,1 53600U 22104N   24015.63701927  .00001225  00000-0  95015-4 0  9994,2 53600  53.2176 164.2696 0001080  71.4653 288.6456 15.08842789 77240,6917.872,95.437,540.484,538.99,0.0
53600.0,STARLINK-4677,PAYLOAD,2024-01-16 13:32:43,15.08831394,0.0001341,53.2178,160.1088,52.1504,307.961,8.6065e-05,1.082e-05,0.0,0 STARLINK-4677,1 53600U 22104N   24016.56439023  .00001082  00000-0  86065-4 0  9998,2 53600  53.2178 160.1088 0001341  52.1504 307.9610 15.08831394 77385,6917.907,95.438,540.699,538.844,0.0
53600.0,STARLINK-4677,PAYLOAD,2024-01-16 18:18:52,15.08844355,0.0001185,53.2176,159.2151,63.4641,296.6472,-2.1225e-05,-6.26e-06,0.0,0 STARLINK-4677,1 53600U 22104N   24016.76310484 -.00000626  00000-0 -21225-4 0  9991,2 53600  53.2176 159.2151 0001185  63.4641 296.6472 15.08844355 77130,6917.867,95.437,540.552,538.912,0.0
53600.0,STARLINK-4677,PAYLOAD,2024-01-17 14:58:53,15.08842891,0.0001471,53.2182,155.3446,120.5233,239.5904,-5.0121e-05,-1.086e-05,0.0,0 STARLINK-4677,1 53600U 22104N   24017.62422762 -.00001086  00000-0 -50121-4 0  9998,2 53600  53.2182 155.3446 0001471 120.5233 239.5904 15.08842891 77545,6917.872,95.437,540.754,538.719,0.0
53600.0,STARLINK-4677,PAYLOAD,2024-01-17 16:34:16,15.08843654,0.0001203,53.2186,155.0484,106.7557,253.3568,-5.1164e-05,-1.102e-05,0.0,0 STARLINK-4677,1 53600U 22104N   24017.69046787 -.00001102  00000-0 -51164-4 0  9991,2 53600  53.2186 155.0484 0001203 106.7557 253.3568 15.08843654 77555,6917.869,95.437,540.566,538.902,0.0
53600.0,STARLINK-4677,PAYLOAD,2024-01-18 14:49:39,15.08845066,0.0001215,53.218,150.8854,91.1518,268.9613,0.00017207,2.452e-05,0.0,0 STARLINK-4677,1 53600U 22104N   24018.61782347  .00002452  00000-0  17207-3 0  9999,2 53600  53.2180 150.8854 0001215  91.1518 268.9613 15.08845066 77697,6917.865,95.437,540.57,538.889,0.0
53600.0,STARLINK-4677,PAYLOAD,2024-01-18 16:25:02,15.08851687,0.0001207,53.2172,150.5923,99.9834,260.1294,0.00015719,2.215e-05,0.0,0 STARLINK-4677,1 53600U 22104N   24018.68406025  .00002215  00000-0  15719-3 0  9995,2 53600  53.2172 150.5923 0001207  99.9834 260.1294 15.08851687 77426,6917.845,95.437,540.545,538.875,0.0
53600.0,STARLINK-4677,PAYLOAD,2024-01-19 08:18:54,15.08843964,0.0001337,53.2183,147.622,76.3139,283.8002,0.00011921,1.61e-05,0.0,0 STARLINK-4677,1 53600U 22104N   24019.34646740  .00001610  00000-0  11921-3 0  9998,2 53600  53.2183 147.6220 0001337  76.3139 283.8002 15.08843964 77525,6917.868,95.437,540.658,538.808,0.0
53600.0,STARLINK-4677,PAYLOAD,2024-01-19 14:40:26,15.08847924,0.0001191,53.2167,146.43,78.5243,281.5883,0.00013661,1.887e-05,0.0,0 STARLINK-4677,1 53600U 22104N   24019.61142329  .00001887  00000-0  13661-3 0  9991,2 53600  53.2167 146.4300 0001191  78.5243 281.5883 15.08847924 77848,6917.856,95.437,540.545,538.897,0.0
53600.0,STARLINK-4677,PAYLOAD,2024-01-20 11:20:28,15.08839046,0.0001446,53.2193,142.5615,80.0455,280.07,-8.8833e-05,-1.701e-05,0.0,0 STARLINK-4677,1 53600U 22104N   24020.47255682 -.00001701  00000-0 -88833-4 0  9995,2 53600  53.2193 142.5615 0001446  80.0455 280.0700 15.08839046 77690,6917.883,95.438,540.749,538.748,0.0
